SPACEBEE-120            
1 52013U 22026F   22095.88135577  .00013862  00000+0  75755-3 0  9996
2 52013  97.5036  96.7245 0029853 158.9470 201.2998 15.14022844  3204
SPACEBEE-122            
1 52014U 22026G   22095.94746599  .00013974  00000+0  76436-3 0  9997
2 52014  97.5043  96.7896 0028581 162.1441 198.0801 15.14021324  3216
SPACEBEE-119            
1 52015U 22026H   22095.88139941  .00012254  00000+0  67116-3 0  9993
2 52015  97.5056  96.7284 0029278 161.3134 198.9179 15.13990776  3207
2022-026J               
1 52016U 22026J   22096.47614984  .00012187  00000+0  66715-3 0  9994
2 52016  97.5054  97.3140 0028993 159.6531 200.5863 15.14017586  3297
ORESAT0                 
1 52017U 22026K   22095.88194002  .00009335  00000+0  51390-3 0  9997
2 52017  97.5036  96.7240 0028789 161.6256 198.6022 15.13893104  3204
2022-026L               
1 52018U 22026L   22095.81458587  .00015915  00000+0  86749-3 0  9999
2 52018  97.5050  96.6628 0029026 161.8413 198.3862 15.14105386  3198
SPACEBEENZ-11           
1 52019U 22026M   22095.94672399  .00016301  00000+0  88789-3 0  9999
2 52019  97.5049  96.7928 0029092 161.2676 198.9634 15.14123109  3173
2022-026N               
1 52020U 22026N   22096.54226779  .00012184  00000+0  66706-3 0  9995
2 52020  97.5041  97.3765 0028960 159.2768 200.9645 15.14014141  3255
SPACEBEE-125            
1 52021U 22026P   22095.88107915  .00014192  00000+0  77445-3 0  9995
2 52021  97.5037  96.7253 0030530 160.1726 200.0700 15.14051784  3074
SPACEBEE-117            
1 52022U 22026Q   22095.94733059  .00012832  00000+0  70230-3 0  9991
2 52022  97.5051  96.7927 0029021 161.3894 198.8406 15.14011571  3089
SPACEBEE-116            
1 52023U 22026R   22095.94731294  .00012937  00000+0  70797-3 0  9995
2 52023  97.5047  96.7928 0028994 161.4134 198.8163 15.14013038  3082
SPACEBEE-113            
1 52024U 22026S   22095.74867000  .00014566  00000+0  79416-3 0  9996
2 52024  97.5046  96.5971 0030915 159.5867 200.6608 15.14066481  3058
SPACEBEE-112            
1 52025U 22026T   22095.88092421  .00014412  00000+0  78698-3 0  9990
2 52025  97.5049  96.7278 0029068 161.6297 198.5992 15.14062127  3078
2022-026U               
1 52026U 22026U   22096.07890998  .00015597  00000+0  84987-3 0  9991
2 52026  97.5050  96.9230 0029092 160.9059 199.3270 15.14119460  3011
2022-026V               
1 52027U 22026V   22095.88122708  .00012597  00000+0  68945-3 0  9990
2 52027  97.5040  96.7250 0028947 161.5126 198.7164 15.14017051  2984
YAOGAN-34 02            
1 52084U 22027A   22095.87928349 -.00000036  00000+0  89845-4 0  9997
2 52084  63.3988 179.4053 0013021 266.9848  92.9695 13.46730008  2641
CZ-4C R/B               
1 52085U 22027B   22096.19739944 -.00000109  00000+0 -16315-4 0  9999
2 52085  63.3997 176.8994 0103089  41.7388 319.1454 13.65320645  2728
SOYUZ-MS 21             
1 52086U 22028A   22095.72779924  .00013133  00000+0  23862-3 0  9994
2 52086  51.6453 335.4789 0004453 350.2024 114.7258 15.49886413333947
STARLINK-3537           
1 52088U 22029A   22096.50001157  .00194847  25510-4  54569-3 0  9998
2 52088  53.2167  51.8354 0007535 340.8228  84.8993 15.93220513  4165
STARLINK-3722           
1 52089U 22029B   22096.25002315 -.00718944  00000+0 -70177-2 0  9994
2 52089  53.2176  54.8096 0001106  90.3194 223.5879 15.67716938  4098
STARLINK-3712           
1 52090U 22029C   22095.91667824 -.00717250  00000+0 -67460-2 0  9990
2 52090  53.2177  56.4441 0001232  74.4042 162.8542 15.68611409  3581
STARLINK-3713           
1 52091U 22029D   22095.91667824 -.00716932  00000+0 -68147-2 0  9990
2 52091  53.2177  56.4448 0001224  81.6928 151.5670 15.68354740  3548
STARLINK-3716           
1 52092U 22029E   22095.91667824 -.00717120  00000+0 -67806-2 0  9992
2 52092  53.2177  56.4447 0001222  77.8264 157.4521 15.68483087  3587
STARLINK-3673           
1 52093U 22029F   22095.91667824 -.00717169  00000+0 -66758-2 0  9991
2 52093  53.2177  56.4395 0001314  62.1330 180.0381 15.68860267  3544
STARLINK-3714           
1 52094U 22029G   22096.16667824 -.00717140  00000+0 -68164-2 0  9992
2 52094  53.2175  55.2161 0001253  75.3013 136.3981 15.68356141  4088
STARLINK-3701           
1 52095U 22029H   22095.91667824 -.00718059  00000+0 -66143-2 0  9990
2 52095  53.2178  56.4376 0001086  78.3978 167.4670 15.69117296  3581
STARLINK-3717           
1 52096U 22029J   22096.50001157  .00042748  00000+0  30799-3 0  9990
2 52096  53.2175  53.0884 0001006  85.1759  89.8830 15.73159117  4142
STARLINK-3676           
1 52097U 22029K   22096.50001157  .00202903  26686-4  57391-3 0  9992
2 52097  53.2162  51.8635 0007217 340.8933  70.4683 15.93023805  4153
STARLINK-3665           
1 52098U 22029L   22095.91667824 -.00717311  00000+0 -66420-2 0  9991
2 52098  53.2177  56.4388 0001201  79.0234 165.0140 15.68988593  3545
STARLINK-3662           
1 52099U 22029M   22096.50001157  .00204576  27018-4  56873-3 0  9996
2 52099  53.2161  51.8376 0007012 345.7741  77.7757 15.93351664  4160
STARLINK-3702           
1 52100U 22029N   22096.25002315 -.00719561  00000+0 -67352-2 0  9995
2 52100  53.2176  54.8007 0001101  81.9150 249.6661 15.68735587  4097
STARLINK-3703           
1 52101U 22029P   22095.91667824 -.00717517  00000+0 -65068-2 0  9991
2 52101  53.2177  56.4303 0001183  85.3505 167.3852 15.69490322  3541
STARLINK-3709           
1 52102U 22029Q   22096.50001157  .00044363  00000+0  31933-3 0  9994
2 52102  53.2173  53.5032 0000977  85.1988 247.2984 15.73164030  4137
STARLINK-3705           
1 52103U 22029R   22096.50001157  .00044403  00000+0  31961-3 0  9991
2 52103  53.2174  53.4957 0001084  92.2915 243.6327 15.73163991  4139
STARLINK-3693           
1 52104U 22029S   22095.91667824  .00220143  29191-4  65851-3 0  9994
2 52104  53.2163  54.9146 0006579 325.0603 300.2610 15.91937157  3552
STARLINK-3706           
1 52105U 22029T   22096.25002315  .00094018  00000+0  66912-3 0  9993
2 52105  53.2178  54.7308 0001162  80.5045 280.0131 15.73119701  4093
STARLINK-3670           
1 52106U 22029U   22095.91667824 -.00717594  00000+0 -64728-2 0  9993
2 52106  53.2177  56.4292 0001189  88.7346 165.6774 15.69618598  3551
STARLINK-3658           
1 52107U 22029V   22096.50001157  .00008262  00000+0  63161-4 0  9996
2 52107  53.2174  53.4905 0000983  80.5987 257.6243 15.73223668  4132
STARLINK-3698           
1 52108U 22029W   22096.25002315  .00029323  00000+0  21314-3 0  9990
2 52108  53.2178  54.7323 0000892  81.2977 278.6767 15.73142038  4091
STARLINK-3687           
1 52110U 22029Y   22096.16667824  .00060420  00000+0  43281-3 0  9995
2 52110  53.2177  55.1418 0000785  88.2787 160.4845 15.73146501  4083
STARLINK-3708           
1 52111U 22029Z   22096.50001157  .00043455  00000+0  31290-3 0  9991
2 52111  53.2175  53.4856 0001096  80.1154 260.4505 15.73165429  4134
STARLINK-3734           
1 52112U 22029AA  22096.50001157  .00044220  00000+0  31835-3 0  9998
2 52112  53.2176  53.4896 0000801  99.4328 239.3811 15.73161774  4133
STARLINK-3736           
1 52113U 22029AB  22096.16667824  .00056322  00000+0  40382-3 0  9993
2 52113  53.2177  55.1331 0000843  75.9781 176.8112 15.73154197  4080
STARLINK-3737           
1 52114U 22029AC  22096.50001157 -.00069548  00000+0 -49428-3 0  9999
2 52114  53.2175  53.4870 0001251  84.4350 255.5029 15.73244325  4130
STARLINK-3685           
1 52115U 22029AD  22096.50001157  .00015525  00000+0  11505-3 0  9999
2 52115  53.2175  53.4805 0000858  82.8926 259.9631 15.73153995  4131
STARLINK-3735           
1 52116U 22029AE  22096.50001157  .00041473  00000+0  29907-3 0  9996
2 52116  53.2176  53.4847 0001198  85.8812 255.1816 15.73151683  4139
STARLINK-3738           
1 52117U 22029AF  22096.16667824  .00058591  00000+0  41988-3 0  9990
2 52117  53.2177  55.1282 0001013  83.0397 171.9923 15.73149433  4085
STARLINK-3743           
1 52118U 22029AG  22096.50001157  .00043927  00000+0  31613-3 0  9991
2 52118  53.2176  53.4822 0000741  81.4053 260.8453 15.73172638  4139
STARLINK-3558           
1 52119U 22029AH  22096.50001157  .00045361  00000+0  32621-3 0  9996
2 52119  53.2175  53.4757 0001028  91.7281 253.4006 15.73175854  4137
STARLINK-3534           
1 52120U 22029AJ  22096.50001157  .00044563  00000+0  32078-3 0  9997
2 52120  53.2176  53.4799 0001202  87.0132 256.3505 15.73161234  4147
STARLINK-3678           
1 52121U 22029AK  22096.25002315  .00090726  00000+0  64577-3 0  9998
2 52121  53.2179  54.7111 0001278  91.2612 278.3560 15.73131486  4091
STARLINK-3726           
1 52122U 22029AL  22096.16667824  .00058668  00000+0  42055-3 0  9997
2 52122  53.2178  55.1272 0000790  81.5953 174.0305 15.73142210  4087
STARLINK-3725           
1 52123U 22029AM  22096.16667824  .00001113  00000+0  12343-4 0  9999
2 52123  53.2177  55.1207 0000957  78.9090 179.5771 15.73191215  4088
STARLINK-3684           
1 52124U 22029AN  22096.25002315  .00010580  00000+0  79779-4 0  9992
2 52124  53.2180  54.7126 0001052  87.3603 281.7503 15.73176772  4090
STARLINK-3727           
1 52125U 22029AP  22096.50001157  .00024585  00000+0  17918-3 0  9990
2 52125  53.2175  53.4692 0000873  83.8418 264.1995 15.73185351  4132
STARLINK-3732           
1 52126U 22029AQ  22096.50001157  .00046947  00000+0  33762-3 0  9992
2 52126  53.2177  53.4724 0001186  90.6322 256.2164 15.73160344  4134
STARLINK-3715           
1 52127U 22029AR  22096.50001157  .00038592  00000+0  27826-3 0  9994
2 52127  53.2177  53.4667 0001159  87.5069 261.6596 15.73188690  4137
STARLINK-3719           
1 52128U 22029AS  22096.58334491  .00217309  29492-4  55211-3 0  9998
2 52128  53.2152  51.2446 0006417 339.3889 282.8543 15.95028672  4170
STARLINK-3661           
1 52129U 22029AT  22096.50001157  .00046537  00000+0  33474-3 0  9990
2 52129  53.2176  53.4647 0001122  81.0542 269.2034 15.73159199  4134
